FLOCK 4BE-17            
1 60492U 24149AA  26201.15886423  .00009817  00000+0  24272-3 0  9993
2 60492  97.3759 284.8080 0004598 134.2497 225.9128 15.40664875107338
FLOCK 4BE-22            
1 60494U 24149AC  26200.78599756  .00031230  00000+0  72931-3 0  9992
2 60494  97.3722 284.6756 0005027 143.6358 216.5231 15.42128028107323
FLOCK 4BE-34            
1 60495U 24149AD  26201.19304183  .00009586  00000+0  22649-3 0  9997
2 60495  97.3771 285.9304 0005192 147.4692 212.6876 15.42043469107414
FLOCK 4BE-32            
1 60497U 24149AF  26201.13856057  .00011088  00000+0  25177-3 0  9994
2 60497  97.3707 285.4458 0005285 145.5792 214.5799 15.43194801107416
FLOCK 4BE-11            
1 60501U 24149AK  26200.72719253  .00011128  00000+0  24613-3 0  9999
2 60501  97.3686 285.2900 0005312 145.9744 214.1846 15.43976188107370
FLOCK 4BE-24            
1 60505U 24149AP  26200.96941027  .00012512  00000+0  27422-3 0  9994
2 60505  97.3697 285.8069 0005422 156.1445 204.0056 15.44216682107426
FLOCK 4BE-29            
1 60509U 24149AT  26201.15010982  .00027377  00000+0  56680-3 0  9990
2 60509  97.3798 287.5511 0003842 164.3167 195.8202 15.45737768107502
FLOCK 4BE-2             
1 60511U 24149AV  26200.75888241  .00039242  00000+0  55771-3 0  9993
2 60511  97.3816 289.0717 0005504 160.7026 199.4439 15.56281614107566
FLOCK 4BE-13            
1 60512U 24149AW  26200.79047602  .00008084  00000+0  18727-3 0  9996
2 60512  97.3709 285.5587 0005400 142.5347 217.6278 15.42692837107396
FLOCK 4BE-27            
1 60513U 24149AX  26200.79470001  .00004994  00000+0  14962-3 0  9993
2 60513  97.3816 282.6724 0004369 167.5302 192.6050 15.34964589107148
FLOCK 4BE-9             
1 60514U 24149AY  26200.81168060  .00011050  00000+0  26366-3 0  9998
2 60514  97.3785 285.4200 0003937 159.1744 200.9664 15.41712161107342
FLOCK 4BE-6             
1 60516U 24149BA  26200.67219031  .00008139  00000+0  20344-3 0  9993
2 60516  97.3778 284.5741 0004796 160.3202 199.8231 15.40391844107271
FLOCK 4BE-14            
1 60517U 24149BB  26201.14379668  .00010245  00000+0  24259-3 0  9990
2 60517  97.3684 285.2187 0005767 161.7338 198.4117 15.41955297107406
FLOCK 4BE-1             
1 60518U 24149BC  26201.18967065  .00010842  00000+0  24277-3 0  9992
2 60518  97.3768 286.6623 0005399 161.0158 199.1292 15.43617485107468
FLOCK 4BE-28            
1 60519U 24149BD  26201.15083185  .00027630  00000+0  55610-3 0  9990
2 60519  97.3737 287.4579 0005441 161.0395 199.1059 15.46555122107536
FLOCK 4BE-5             
1 60559U 24149CV  26201.21474434  .00009942  00000+0  24198-3 0  9995
2 60559  97.3832 285.5522 0004437 157.4562 202.6880 15.41139831107365
